[
    {
        "Altitude(m)": 561284.3031240787,
        "Argument of Periapsis(deg)": 0.026491964442854003,
        "Eccentricity": 0.0,
        "Inclination(deg)": 53.0,
        "Latitude(deg)": -26.836294949366717,
        "Longitude(deg)": 164.53411278682765,
        "Mean Anomaly(deg)": -34.17902852968972,
        "RAAN(deg)": 289.9605734741121,
        "Satellite Name": "Starlink Shell 1 1293",
        "Satellite Number": 1293,
        "Semi-Major Axis(m)": 6931778.249405717,
        "Time(s)": 760
    },
    {
        "Altitude(m)": 561112.0739323563,
        "Argument of Periapsis(deg)": 0.02684054292236524,
        "Eccentricity": 0.0,
        "Inclination(deg)": 53.0,
        "Latitude(deg)": -26.37084793337878,
        "Longitude(deg)": 164.9625645739756,
        "Mean Anomaly(deg)": -33.55219732613296,
        "RAAN(deg)": 289.96005470403463,
        "Satellite Name": "Starlink Shell 1 1293",
        "Satellite Number": 1293,
        "Semi-Major Axis(m)": 6931778.249405717,
        "Time(s)": 770
    },
    {
        "Altitude(m)": 560940.5177201334,
        "Argument of Periapsis(deg)": 0.027189121401876473,
        "Eccentricity": 0.0,
        "Inclination(deg)": 53.0,
        "Latitude(deg)": -25.903828002146334,
        "Longitude(deg)": 165.38727905779535,
        "Mean Anomaly(deg)": -32.92536612257622,
        "RAAN(deg)": 289.95953593395717,
        "Satellite Name": "Starlink Shell 1 1293",
        "Satellite Number": 1293,
        "Semi-Major Axis(m)": 6931778.249405717,
        "Time(s)": 780
    },
    {
        "Altitude(m)": 560769.6972134564,
        "Argument of Periapsis(deg)": 0.02753769988138771,
        "Eccentricity": 0.0,
        "Inclination(deg)": 53.0,
        "Latitude(deg)": -25.435278085830003,
        "Longitude(deg)": 165.8083500185218,
        "Mean Anomaly(deg)": -32.298534919019524,
        "RAAN(deg)": 289.95901716387965,
        "Satellite Name": "Starlink Shell 1 1293",
        "Satellite Number": 1293,
        "Semi-Major Axis(m)": 6931778.249405717,
        "Time(s)": 790
    },
    {
        "Altitude(m)": 560599.67466249,
        "Argument of Periapsis(deg)": 0.02788627836089895,
        "Eccentricity": 0.0,
        "Inclination(deg)": 53.0,
        "Latitude(deg)": -24.965240226596237,
        "Longitude(deg)": 166.2258694587197,
        "Mean Anomaly(deg)": -31.67170371546278,
        "RAAN(deg)": 289.9584983938022,
        "Satellite Name": "Starlink Shell 1 1293",
        "Satellite Number": 1293,
        "Semi-Major Axis(m)": 6931778.249405717,
        "Time(s)": 800
    },
    {
        "Altitude(m)": 560430.5118136145,
        "Argument of Periapsis(deg)": 0.02823485684041019,
        "Eccentricity": 0.0,
        "Inclination(deg)": 53.0,
        "Latitude(deg)": -24.493755605640374,
        "Longitude(deg)": 166.63992811940392,
        "Mean Anomaly(deg)": -31.044872511906032,
        "RAAN(deg)": 289.9579796237247,
        "Satellite Name": "Starlink Shell 1 1293",
        "Satellite Number": 1293,
        "Semi-Major Axis(m)": 6931778.249405717,
        "Time(s)": 810
    },
    {
        "Altitude(m)": 560262.2698817252,
        "Argument of Periapsis(deg)": 0.028583435319921423,
        "Eccentricity": 0.0,
        "Inclination(deg)": 53.0,
        "Latitude(deg)": -24.02086456969385,
        "Longitude(deg)": 167.0506159978995,
        "Mean Anomaly(deg)": -30.41804130834939,
        "RAAN(deg)": 289.95746085364726,
        "Satellite Name": "Starlink Shell 1 1293",
        "Satellite Number": 1293,
        "Semi-Major Axis(m)": 6931778.249405717,
        "Time(s)": 820
    },
    {
        "Altitude(m)": 560095.0095228116,
        "Argument of Periapsis(deg)": 0.028932013799432665,
        "Eccentricity": 0.0,
        "Inclination(deg)": 53.0,
        "Latitude(deg)": -23.54660665701098,
        "Longitude(deg)": 167.4580213544119,
        "Mean Anomaly(deg)": -29.791210104792693,
        "RAAN(deg)": 289.95694208356974,
        "Satellite Name": "Starlink Shell 1 1293",
        "Satellite Number": 1293,
        "Semi-Major Axis(m)": 6931778.249405717,
        "Time(s)": 830
    },
    {
        "Altitude(m)": 559928.7908067885,
        "Argument of Periapsis(deg)": 0.029280592278943897,
        "Eccentricity": 0.0,
        "Inclination(deg)": 53.0,
        "Latitude(deg)": -23.071020622839306,
        "Longitude(deg)": 167.8622312329029,
        "Mean Anomaly(deg)": -29.164378901235946,
        "RAAN(deg)": 289.95642331349234,
        "Satellite Name": "Starlink Shell 1 1293",
        "Satellite Number": 1293,
        "Semi-Major Axis(m)": 6931778.249405717,
        "Time(s)": 840
    },
    {
        "Altitude(m)": 559763.6731905894,
        "Argument of Periapsis(deg)": 0.029629170758455132,
        "Eccentricity": 0.0,
        "Inclination(deg)": 53.0,
        "Latitude(deg)": -22.59414446437107,
        "Longitude(deg)": 168.26333198326404,
        "Mean Anomaly(deg)": -28.5375476976792,
        "RAAN(deg)": 289.9559045434148,
        "Satellite Name": "Starlink Shell 1 1293",
        "Satellite Number": 1293,
        "Semi-Major Axis(m)": 6931778.249405717,
        "Time(s)": 850
    },
    {
        "Altitude(m)": 559599.7154915346,
        "Argument of Periapsis(deg)": 0.02997774923796637,
        "Eccentricity": 0.0,
        "Inclination(deg)": 53.0,
        "Latitude(deg)": -22.11601544517545,
        "Longitude(deg)": 168.66140810368907,
        "Mean Anomaly(deg)": -27.910716494122504,
        "RAAN(deg)": 289.95538577333735,
        "Satellite Name": "Starlink Shell 1 1293",
        "Satellite Number": 1293,
        "Semi-Major Axis(m)": 6931778.249405717,
        "Time(s)": 860
    },
    {
        "Altitude(m)": 559436.9758610725,
        "Argument of Periapsis(deg)": 0.030326327717477602,
        "Eccentricity": 0.0,
        "Inclination(deg)": 53.0,
        "Latitude(deg)": -21.636670119121536,
        "Longitude(deg)": 169.05654360555351,
        "Mean Anomaly(deg)": -27.28388529056581,
        "RAAN(deg)": 289.9548670032599,
        "Satellite Name": "Starlink Shell 1 1293",
        "Satellite Number": 1293,
        "Semi-Major Axis(m)": 6931778.249405717,
        "Time(s)": 870
    },
    {
        "Altitude(m)": 559275.5117587195,
        "Argument of Periapsis(deg)": 0.030674906196988847,
        "Eccentricity": 0.0,
        "Inclination(deg)": 53.0,
        "Latitude(deg)": -21.156144353789298,
        "Longitude(deg)": 169.44882085777996,
        "Mean Anomaly(deg)": -26.657054087009012,
        "RAAN(deg)": 289.9543482331824,
        "Satellite Name": "Starlink Shell 1 1293",
        "Satellite Number": 1293,
        "Semi-Major Axis(m)": 6931778.249405717,
        "Time(s)": 880
    },
    {
        "Altitude(m)": 559115.3799264308,
        "Argument of Periapsis(deg)": 0.031023484676500086,
        "Eccentricity": 0.0,
        "Inclination(deg)": 53.0,
        "Latitude(deg)": -20.67447335338032,
        "Longitude(deg)": 169.8383211130153,
        "Mean Anomaly(deg)": -26.030222883452314,
        "RAAN(deg)": 289.95382946310497,
        "Satellite Name": "Starlink Shell 1 1293",
        "Satellite Number": 1293,
        "Semi-Major Axis(m)": 6931778.249405717,
        "Time(s)": 890
    },
    {
        "Altitude(m)": 558956.6363632604,
        "Argument of Periapsis(deg)": 0.03137206315601132,
        "Eccentricity": 0.0,
        "Inclination(deg)": 53.0,
        "Latitude(deg)": -20.191691681132397,
        "Longitude(deg)": 170.22512503455587,
        "Mean Anomaly(deg)": -25.40339167989572,
        "RAAN(deg)": 289.9533106930275,
        "Satellite Name": "Starlink Shell 1 1293",
        "Satellite Number": 1293,
        "Semi-Major Axis(m)": 6931778.249405717,
        "Time(s)": 900
    },
    {
        "Altitude(m)": 558799.3363003925,
        "Argument of Periapsis(deg)": 0.03172064163552255,
        "Eccentricity": 0.0,
        "Inclination(deg)": 53.0,
        "Latitude(deg)": -19.70783328124319,
        "Longitude(deg)": 170.6093117110609,
        "Mean Anomaly(deg)": -24.776560476338922,
        "RAAN(deg)": 289.95279192295,
        "Satellite Name": "Starlink Shell 1 1293",
        "Satellite Number": 1293,
        "Semi-Major Axis(m)": 6931778.249405717,
        "Time(s)": 910
    },
    {
        "Altitude(m)": 558643.5341765236,
        "Argument of Periapsis(deg)": 0.0320692201150338,
        "Eccentricity": 0.0,
        "Inclination(deg)": 53.0,
        "Latitude(deg)": -19.222931500316996,
        "Longitude(deg)": 170.99095918472202,
        "Mean Anomaly(deg)": -24.149729272782174,
        "RAAN(deg)": 289.9522731528725,
        "Satellite Name": "Starlink Shell 1 1293",
        "Satellite Number": 1293,
        "Semi-Major Axis(m)": 6931778.249405717,
        "Time(s)": 920
    },
    {
        "Altitude(m)": 558489.2836136479,
        "Argument of Periapsis(deg)": 0.032417798594545036,
        "Eccentricity": 0.0,
        "Inclination(deg)": 53.0,
        "Latitude(deg)": -18.737019108339588,
        "Longitude(deg)": 171.37014497994335,
        "Mean Anomaly(deg)": -23.52289806922553,
        "RAAN(deg)": 289.95175438279506,
        "Satellite Name": "Starlink Shell 1 1293",
        "Satellite Number": 1293,
        "Semi-Major Axis(m)": 6931778.249405717,
        "Time(s)": 930
    },
    {
        "Altitude(m)": 558336.6373932078,
        "Argument of Periapsis(deg)": 0.03276637707405627,
        "Eccentricity": 0.0,
        "Inclination(deg)": 53.0,
        "Latitude(deg)": -18.250128319188896,
        "Longitude(deg)": 171.7469451195921,
        "Mean Anomaly(deg)": -22.89606686566884,
        "RAAN(deg)": 289.9512356127176,
        "Satellite Name": "Starlink Shell 1 1293",
        "Satellite Number": 1293,
        "Semi-Major Axis(m)": 6931778.249405717,
        "Time(s)": 940
    }
]